STARLINK-36743          
1 67876U 26034AC  26062.58336806  .00062699  00000+0  31896-3 0  9995
2 67876  53.1587 241.7261 0001049  96.0970 284.1028 15.80868666  2880
STARLINK-36784          
1 67877U 26034AD  26062.58336806  .00014205  00000+0  75334-4 0  9992
2 67877  53.1569 241.7176 0001081  79.5002 304.9745 15.80889329  2880
STARLINK-36689          
1 67878U 26034AE  26062.58336806 -.00066584  00000+0 -33566-3 0  9992
2 67878  53.1569 241.7093 0000995  98.2745 290.4655 15.80920728  2882
STARLINK-36818          
1 67879U 26035A   26062.58336806 -.00860977  24903-3 -16770-2 0  9991
2 67879  97.2788 354.4338 0001232  97.5957 343.6113 16.00267373  2772
STARLINK-36821          
1 67880U 26035B   26062.58336806 -.00864211  25130-3 -16656-2 0  9994
2 67880  97.2784 354.4365 0001141  95.2126 351.8005 16.00453094  2770
STARLINK-36808          
1 67881U 26035C   26062.58336806 -.00858792  24805-3 -16660-2 0  9995
2 67881  97.2784 354.4347 0001286 107.8304 335.5546 16.00337486  2774
STARLINK-36817          
1 67882U 26035D   26062.58336806 -.00867742  25385-3 -16516-2 0  9995
2 67882  97.2776 354.4392 0001155  90.1991   3.9095 16.00673830  2778
STARLINK-36856          
1 67883U 26035E   26062.58336806 -.00864727  25191-3 -16558-2 0  9997
2 67883  97.2781 354.4378 0001197  98.5258 352.2852 16.00567808  2771
STARLINK-36842          
1 67884U 26035F   26062.58336806 -.00872072  25651-3 -16502-2 0  9990
2 67884  97.2777 354.4403 0001109  95.6731   1.5004 16.00776963  2770
STARLINK-36826          
1 67885U 26035G   26062.58336806 -.00864260  25249-3 -16280-2 0  9997
2 67885  97.2777 354.4416 0001136  85.5217  14.0731 16.00854942  2772
STARLINK-36390          
1 67886U 26035H   26062.58336806 -.00879501  26119-3 -16452-2 0  9990
2 67886  97.2774 354.4431 0001202  94.7543   8.6027 16.00978370  2820
STARLINK-36368          
1 67887U 26035J   26062.58336806 -.00909364  27828-3 -16897-2 0  9993
2 67887  97.2772 354.4446 0001292 106.2695   0.6544 16.01099817  2772
STARLINK-36801          
1 67888U 26035K   26062.58336806 -.00961273  30893-3 -17733-2 0  9997
2 67888  97.2770 354.4460 0001240  74.0150  36.3277 16.01232787  2772
STARLINK-36372          
1 67889U 26035L   26062.58336806 -.01019723  34550-3 -18585-2 0  9993
2 67889  97.2766 354.4486 0001267  76.2123  40.6975 16.01451415  2773
STARLINK-36363          
1 67890U 26035M   26062.58336806 -.01003265  33489-3 -18379-2 0  9990
2 67890  97.2770 354.4477 0001312  98.2889  15.9482 16.01360578  2771
STARLINK-36816          
1 67891U 26035N   26062.58336806 -.01046168  36820-3 -17578-2 0  9992
2 67891  97.2747 354.4682 0001212  93.6864  72.8164 16.02855162  2661
